[{"OBJECT_NAME":"GEISAT PRECURSOR","OBJECT_ID":"2023-084C","EPOCH":"2026-03-09T22:20:25.833120","MEAN_MOTION":15.33054389,"ECCENTRICITY":0.00051675,"INCLINATION":97.6055,"RA_OF_ASC_NODE":206.8263,"ARG_OF_PERICENTER":345.1842,"MEAN_ANOMALY":14.9247,"EPHEMERIS_TYPE":0,"CLASSIFICATION_TYPE":"U","NORAD_CAT_ID":56934,"ELEMENT_SET_NO":999,"REV_AT_EPOCH":15231,"BSTAR":0.00033857167,"MEAN_MOTION_DOT":0.00010736,"MEAN_MOTION_DDOT":0},{"OBJECT_NAME":"STARLINK-31050","OBJECT_ID":"2023-192R","EPOCH":"2026-03-09T08:58:46.718976","MEAN_MOTION":15.30181401,"ECCENTRICITY":0.00013676,"INCLINATION":53.1604,"RA_OF_ASC_NODE":64.4434,"ARG_OF_PERICENTER":103.7803,"MEAN_ANOMALY":256.335,"EPHEMERIS_TYPE":0,"CLASSIFICATION_TYPE":"U","NORAD_CAT_ID":58546,"ELEMENT_SET_NO":999,"REV_AT_EPOCH":12593,"BSTAR":-5.119229e-5,"MEAN_MOTION_DOT":-1.874e-5,"MEAN_MOTION_DDOT":0}]
